[{"OBJECT_NAME":"STARLINK-3867","OBJECT_ID":"2022-051BD","EPOCH":"2026-03-09T12:19:03.360576","MEAN_MOTION":15.08845887,"ECCENTRICITY":0.00015785,"INCLINATION":53.2172,"RA_OF_ASC_NODE":119.7694,"ARG_OF_PERICENTER":93.2219,"MEAN_ANOMALY":266.8953,"EPHEMERIS_TYPE":0,"CLASSIFICATION_TYPE":"U","NORAD_CAT_ID":52587,"ELEMENT_SET_NO":999,"REV_AT_EPOCH":21156,"BSTAR":0.00026777046,"MEAN_MOTION_DOT":3.977e-5,"MEAN_MOTION_DDOT":0},{"OBJECT_NAME":"YUNYAO-1 43","OBJECT_ID":"2025-059A","EPOCH":"2026-03-09T23:54:24.516576","MEAN_MOTION":15.10329109,"ECCENTRICITY":0.00157026,"INCLINATION":97.608,"RA_OF_ASC_NODE":250.9377,"ARG_OF_PERICENTER":132.1084,"MEAN_ANOMALY":228.1483,"EPHEMERIS_TYPE":0,"CLASSIFICATION_TYPE":"U","NORAD_CAT_ID":63344,"ELEMENT_SET_NO":999,"REV_AT_EPOCH":5332,"BSTAR":0.00032498885,"MEAN_MOTION_DOT":5.279e-5,"MEAN_MOTION_DDOT":0}]
